[{"OBJECT_NAME":"STARLINK-3555","OBJECT_ID":"2022-022M","EPOCH":"2026-03-09T23:18:46.488960","MEAN_MOTION":15.0883657,"ECCENTRICITY":0.00015296,"INCLINATION":53.2181,"RA_OF_ASC_NODE":7.8583,"ARG_OF_PERICENTER":95.1453,"MEAN_ANOMALY":264.9714,"EPHEMERIS_TYPE":0,"CLASSIFICATION_TYPE":"U","NORAD_CAT_ID":51863,"ELEMENT_SET_NO":999,"REV_AT_EPOCH":22315,"BSTAR":-0.00036011537,"MEAN_MOTION_DOT":-6.014e-5,"MEAN_MOTION_DDOT":0},{"OBJECT_NAME":"CZ-6A R\/B","OBJECT_ID":"2022-031C","EPOCH":"2026-03-09T19:50:55.360896","MEAN_MOTION":15.07476837,"ECCENTRICITY":0.00174842,"INCLINATION":97.8104,"RA_OF_ASC_NODE":273.2347,"ARG_OF_PERICENTER":181.6412,"MEAN_ANOMALY":178.4761,"EPHEMERIS_TYPE":0,"CLASSIFICATION_TYPE":"U","NORAD_CAT_ID":52152,"ELEMENT_SET_NO":999,"REV_AT_EPOCH":21633,"BSTAR":0.00020233161,"MEAN_MOTION_DOT":3.012e-5,"MEAN_MOTION_DDOT":0}]
